STARLINK-5447           
1 54779U 22175X   23319.03966430  .00001565  00000+0  11641-3 0  9990
2 54779  53.2171 225.4905 0001713  97.0920 263.0267 15.08847212 52460
STARLINK-5449           
1 54780U 22175Y   23319.15372135  .00000904  00000+0  74862-4 0  9999
2 54780  53.2175 224.7819 0001493  88.4777 271.6386 15.08845982 52482
STARLINK-5443           
1 54781U 22175Z   23318.89981698  .00000886  00000+0  73781-4 0  9998
2 54781  53.2169 226.0341 0001664 110.4622 249.6549 15.08838609 50286
STARLINK-5437           
1 54782U 22175AA  23318.90114057  .00052520  00000+0  21996-2 0  9999
2 54782  53.2197 184.3249 0001439 121.3641 238.7498 15.23058323 50863
STARLINK-5439           
1 54783U 22175AB  23319.75725232 -.00000390  00000+0 -63984-5 0  9993
2 54783  53.2179 222.1565 0001753  93.6335 266.4858 15.08847026 50414
STARLINK-5442           
1 54784U 22175AC  23319.80551942 -.00004213  00000+0 -24682-3 0  9993
2 54784  53.2172 236.7113 0001894 103.3194 256.8009 15.08830673 50215
STARLINK-5440           
1 54785U 22175AD  23319.01020328  .00000009  00000+0  18674-4 0  9998
2 54785  53.2164 185.3955 0001450  89.2133 270.9025 15.08839970 53029
STARLINK-5438           
1 54786U 22175AE  23319.18320254  .00000940  00000+0  77124-4 0  9997
2 54786  53.2160 224.9608 0001537  92.1509 267.9659 15.08839088 52485
STARLINK-5441           
1 54787U 22175AF  23319.80184481  .00002277  00000+0  16109-3 0  9997
2 54787  53.2173 236.6887 0001548  88.8048 271.3122 15.08841800 50219
STARLINK-5399           
1 54788U 22175AG  23319.15003328  .00000506  00000+0  49846-4 0  9994
2 54788  53.2173 224.7640 0001629  89.6181 270.4998 15.08852320 52483
STARLINK-5446           
1 54789U 22175AH  23318.42092503  .00000187  00000+0  29860-4 0  9996
2 54789  53.2180 212.9374 0001644  87.8020 272.3160 15.08845201 52587
STARLINK-5445           
1 54790U 22175AJ  23319.14267129  .00001929  00000+0  13927-3 0  9997
2 54790  53.2166 224.7161 0001607  91.9284 268.1892 15.08843293 52488
STARLINK-5425           
1 54791U 22175AK  23319.75357149  .00000412  00000+0  43995-4 0  9992
2 54791  53.2174 222.1306 0001603  93.8369 266.2806 15.08838518 50411
STARLINK-5431           
1 54792U 22175AL  23319.79447191  .00001301  00000+0  99816-4 0  9995
2 54792  53.2170 236.6400 0001700  98.9395 261.1789 15.08842426 50211
STARLINK-5433           
1 54793U 22175AM  23319.09209602 -.00000286  00000+0  11786-6 0  9996
2 54793  53.2165 215.1652 0001407  84.9228 275.1925 15.08843875 52613
STARLINK-5392           
1 54794U 22175AN  23318.89488588 -.00001504  00000+0 -69282-4 0  9993
2 54794  53.2180 231.9501 0001457  92.5952 267.5209 15.12122932 52365
STARLINK-5436           
1 54795U 22175AP  23318.88140668  .00006292  00000+0  41337-3 0  9994
2 54795  53.2182 225.9260 0001009 109.5926 250.5176 15.08809265 50286
STARLINK-5415           
1 54796U 22175AQ  23319.13897938 -.00000066  00000+0  13924-4 0  9999
2 54796  53.2168 224.6939 0001440  95.0065 265.1092 15.08851070 52486
STARLINK-5435           
1 54797U 22175AR  23319.81385189  .00001752  00000+0  12814-3 0  9993
2 54797  53.2180 236.7514 0001448 101.3335 258.7819 15.08839093 50218
STARLINK-5420           
1 54798U 22175AS  23319.00373872  .00004003  00000+0  26932-3 0  9999
2 54798  53.2150 215.3201 0001361  91.5933 268.5215 15.08859002 52606
STARLINK-5421           
1 54799U 22175AT  23319.02217326 -.00000838  00000+0 -34536-4 0  9997
2 54799  53.2180 215.4330 0001931  92.6279 267.4935 15.08835434 52602
STARLINK-5428           
1 54800U 22175AU  23319.07780698 -.00000578  00000+0 -18194-4 0  9995
2 54800  53.2180 229.9946 0001784 103.0977 257.0214 15.08845934 52405
STARLINK-5429           
1 54801U 22175AV  23319.78710452  .00002765  00000+0  19177-3 0  9994
2 54801  53.2142 236.5987 0001500  70.9717 289.1437 15.08841062 50211
STARLINK-5426           
1 54802U 22175AW  23319.04695529  .00008714  00000+0  56509-3 0  9991
2 54802  53.2175 184.8155 0001646  96.2576 263.8604 15.08828065 53031
STARLINK-5430           
1 54803U 22175AX  23319.79815271  .00001260  00000+0  97254-4 0  9994
2 54803  53.2174 236.6480 0001836 134.6578 225.4564 15.08839208 50215
STARLINK-5422           
1 54804U 22175AY  23319.13993810  .00002365  00000+0  16662-3 0  9999
2 54804  53.2163 224.6995 0001471 107.0642 253.0512 15.08849648 52483
STARLINK-5417           
1 54805U 22175AZ  23319.06907822 -.00002698  00000+0 -15158-3 0  9990
2 54805  53.2177 224.9693 0001801  85.1264 274.9934 15.08817631 52476
STARLINK-5412           
1 54806U 22175BA  23319.12424971 -.00002680  00000+0 -15043-3 0  9991
2 54806  53.2161 224.6038 0001371  71.0108 289.1033 15.08827794 52483
STARLINK-5410           
1 54807U 22175BB  23319.12792414  .00002884  00000+0  19914-3 0  9997
2 54807  53.2186 224.6301 0001634  92.6930 267.4249 15.08850427 52485
STARLINK-5413           
1 54808U 22175BC  23319.10177357  .00002266  00000+0  16040-3 0  9990
2 54808  53.2152 210.2850 0001608  86.2006 273.9170 15.08848333 52683
STARLINK-5414           
1 54809U 22175BD  23319.12055374  .00001306  00000+0  10008-3 0  9999
2 54809  53.2172 224.5794 0001373  84.7586 275.3562 15.08852732 52483
STARLINK-5408           
1 54810U 22175BE  23319.14128220  .00000130  00000+0  26270-4 0  9997
2 54810  53.2171 219.7069 0001735  84.9044 275.2146 15.08844753 52557
STARLINK-5424           
1 54811U 22175BF  23319.10179938 -.00000974  00000+0 -43083-4 0  9995
2 54811  53.2170 220.1546 0001596  95.0260 265.0915 15.08835252 52545
STARLINK-5382           
1 54820U 22177A   23319.56667158  .00007797  00000+0  59158-3 0  9990
2 54820  43.0044  45.7765 0001197 273.2382  86.8323 15.02540502 49822
STARLINK-5385           
1 54821U 22177B   23319.35503058  .00000599  00000+0  59430-4 0  9993
2 54821  43.0043  46.7709 0001166 266.3370  93.7340 15.02538589 49791
STARLINK-5101           
1 54822U 22177C   23319.68186763  .00012364  00000+0  92833-3 0  9996
2 54822  43.0047  44.9213 0001299 287.6920  72.3780 15.02550786 48861
STARLINK-5106           
1 54823U 22177D   23319.56334310  .00007217  00000+0  54870-3 0  9997
2 54823  43.0039  45.7512 0001003 276.7812  83.2916 15.02538904 49823
STARLINK-4643           
1 54824U 22177E   23319.36057865  .00003660  00000+0  28582-3 0  9992
2 54824  43.0042  46.8099 0000962 263.1318  96.9415 15.02537269 49798
STARLINK-4801           
1 54825U 22177F   23319.35392011 -.00000053  00000+0  11130-4 0  9993
2 54825  43.0045  46.7549 0001274 273.6605  86.4091 15.02533116 49794
STARLINK-5107           
1 54826U 22177G   23319.68408870  .00009820  00000+0  74080-3 0  9993
2 54826  43.0043  44.9359 0001293 268.7873  91.2822 15.02544983 48862
STARLINK-5383           
1 54827U 22177H   23319.74279423  .00003880  00000+0  30207-3 0  9994
2 54827  43.0043  44.5163 0001296 268.0352  92.0342 15.02544553 48870
STARLINK-5381           
1 54828U 22177J   23319.73946440  .00007167  00000+0  54486-3 0  9991
2 54828  43.0046  44.4913 0001316 284.0907  75.9789 15.02549705 48872
STARLINK-5380           
1 54829U 22177K   23319.35835918  .00003526  00000+0  27595-3 0  9993
2 54829  43.0044  46.7933 0001247 267.1485  92.9215 15.02534693 49799
STARLINK-5394           
1 54830U 22177L   23319.53448355  .00003893  00000+0  30305-3 0  9990
2 54830  43.0047  45.5333 0001237 262.0391  98.0311 15.02539701 49827
STARLINK-5395           
1 54831U 22177M   23319.74501610  .00007634  00000+0  57947-3 0  9996
2 54831  43.0043  44.5332 0001249 268.5422  91.5277 15.02545146 48874
STARLINK-5393           
1 54832U 22177N   23319.70987473  .00005533  00000+0  42423-3 0  9997
2 54832  43.0041  32.1311 0001307 263.8578  96.2115 15.02543958 49017
STARLINK-5391           
1 54833U 22177P   23319.53670435  .00005877  00000+0  44976-3 0  9992
2 54833  43.0046  45.5496 0001254 264.7172  95.3527 15.02539417 49827
STARLINK-5386           
1 54834U 22177Q   23319.53226061  .00002087  00000+0  16946-3 0  9991
2 54834  43.0048  45.5158 0001192 278.8357  81.2351 15.02545472 49835
STARLINK-5389           
1 54835U 22177R   23319.53781296  .00003412  00000+0  26750-3 0  9995
2 54835  43.0049  45.5589 0001222 268.5382  91.5320 15.02540139 49827
STARLINK-5384           
1 54836U 22177S   23319.52893286  .00006850  00000+0  52160-3 0  9991
2 54836  43.0043  45.4898 0001339 282.1419  77.9273 15.02542444 49833
STARLINK-5369           
1 54837U 22177T   23319.53115304  .00003719  00000+0  29020-3 0  9991
2 54837  43.0049  45.5074 0001210 263.4499  96.6205 15.02542520 49822
STARLINK-5372           
1 54838U 22177U   23319.52227151  .00000690  00000+0  66158-4 0  9994
2 54838  43.0042  45.4391 0001145 270.0811  89.9900 15.02550597 49826
STARLINK-5110           
1 54839U 22177V   23319.51672494  .00003162  00000+0  24898-3 0  9999
2 54839  43.0045  45.3981 0001248 270.3234  89.7465 15.02539784 49829
STARLINK-5368           
1 54840U 22177W   23319.71393515  .00001466  00000+0  12358-3 0  9990
2 54840  43.0048  44.2978 0001190 264.2083  95.8624 15.02543819 48871
STARLINK-4659           
1 54841U 22177X   23319.52560400  .00006083  00000+0  46484-3 0  9996
2 54841  43.0047  45.4655 0001234 262.9956  97.0746 15.02549951 49827
STARLINK-5387           
1 54842U 22177Y   23319.70727824  .00012700  00000+0  95321-3 0  9999
2 54842  43.0047  44.2479 0001145 268.6340  91.4371 15.02548661 48873
STARLINK-5304           
1 54843U 22177Z   23319.52005315  .00000750  00000+0  70555-4 0  9999
2 54843  43.0052  45.4233 0001186 270.0485  90.0222 15.02542960 49825
STARLINK-5388           
1 54844U 22177AA  23319.56876898  .00007931  00000+0  60135-3 0  9996
2 54844  43.0044  44.9037 0001236 267.3597  92.7104 15.02545415 49839
STARLINK-5082           
1 54845U 22177AB  23319.57765409  .00011630  00000+0  87440-3 0  9992
2 54845  43.0046  44.9956 0001209 269.5129  90.5575 15.02542253 49832
